[{"OBJECT_NAME":"STARLINK-1954","OBJECT_ID":"2021-009H","EPOCH":"2026-03-09T23:20:25.352160","MEAN_MOTION":15.30849174,"ECCENTRICITY":0.00046184,"INCLINATION":53.0574,"RA_OF_ASC_NODE":8.8654,"ARG_OF_PERICENTER":103.3293,"MEAN_ANOMALY":256.8222,"EPHEMERIS_TYPE":0,"CLASSIFICATION_TYPE":"U","NORAD_CAT_ID":47555,"ELEMENT_SET_NO":999,"REV_AT_EPOCH":28100,"BSTAR":0.0022371791,"MEAN_MOTION_DOT":0.00067883,"MEAN_MOTION_DDOT":0},{"OBJECT_NAME":"STARLINK-33833","OBJECT_ID":"2025-071F","EPOCH":"2026-03-09T11:08:01.479264","MEAN_MOTION":15.30182583,"ECCENTRICITY":0.00016721,"INCLINATION":53.159,"RA_OF_ASC_NODE":141.094,"ARG_OF_PERICENTER":60.2322,"MEAN_ANOMALY":299.8845,"EPHEMERIS_TYPE":0,"CLASSIFICATION_TYPE":"U","NORAD_CAT_ID":63498,"ELEMENT_SET_NO":999,"REV_AT_EPOCH":5273,"BSTAR":0.0003050149,"MEAN_MOTION_DOT":8.68e-5,"MEAN_MOTION_DDOT":0}]
